COMMENT,ORIGINATOR,NORAD_CAT_ID,OBJECT_NAME,OBJECT_TYPE,CLASSIFICATION_TYPE,INTLDES,EPOCH,EPOCH_MICROSECONDS,MEAN_MOTION,ECCENTRICITY,INCLINATION,RA_OF_ASC_NODE,ARG_OF_PERICENTER,MEAN_ANOMALY,EPHEMERIS_TYPE,ELEMENT_SET_NO,REV_AT_EPOCH,BSTAR,MEAN_MOTION_DOT,MEAN_MOTION_DDOT,FILE,TLE_LINE0,TLE_LINE1,TLE_LINE2,OBJECT_ID,OBJECT_NUMBER,SEMIMAJOR_AXIS,PERIOD,APOGEE,PERIGEE,DECAYED
"GENERATED VIA SPACETRACK.ORG API","18 SPCS","55089","SPACEBEE-163","PAYLOAD","U","23001CJ","2023-11-06 15:24:23","903712","15.27347698","0.0011578","97.457","9.9436","220.3275","139.7106","0","999","4678","0.0026882","0.00072674","0","4074934","0 SPACEBEE-163","1 55089U 23001CJ  23310.64194333  .00072674  00000-0  26882-2 0  9999","2 55089  97.4570   9.9436 0011578 220.3275 139.7106 15.27347698 46789","2023-001CJ","55089","6861.882","94.281","491.691","475.802","0"
"GENERATED VIA SPACETRACK.ORG API","18 SPCS","55089","SPACEBEE-163","PAYLOAD","U","23001CJ","2023-11-07 03:59:07","250496","15.27401198","0.0011619","97.4571","10.4669","218.159","141.8828","0","999","4686","0.0019577","0.00052853","0","4075698","0 SPACEBEE-163","1 55089U 23001CJ  23311.16605614  .00052853  00000-0  19577-2 0  9996","2 55089  97.4571  10.4669 0011619 218.1590 141.8828 15.27401198 46866","2023-001CJ","55089","6861.722","94.278","491.559","475.614","0"
"GENERATED VIA SPACETRACK.ORG API","18 SPCS","55089","SPACEBEE-163","PAYLOAD","U","23001CJ","2023-11-07 03:59:07","250496","15.27401198","0.0011619","97.4571","10.4669","218.159","141.8828","0","999","4686","0.0019577","0.00052853","0","4076432","0 SPACEBEE-163","1 55089U 23001CJ  23311.16605614  .00052853  00000-0  19577-2 0  9996","2 55089  97.4571  10.4669 0011619 218.1590 141.8828 15.27401198 46866","2023-001CJ","55089","6861.722","94.278","491.559","475.614","0"
"GENERATED VIA SPACETRACK.ORG API","18 SPCS","55089","SPACEBEE-163","PAYLOAD","U","23001CJ","2023-11-07 16:33:49","20480","15.2744424","0.0011636","97.4569","10.9911","216.36","143.6849","0","999","4694","0.0014064","0.00037923","0","4077003","0 SPACEBEE-163","1 55089U 23001CJ  23311.69015070  .00037923  00000-0  14064-2 0  9992","2 55089  97.4569  10.9911 0011636 216.3600 143.6849 15.27444240 46946","2023-001CJ","55089","6861.593","94.275","491.442","475.473","0"
"GENERATED VIA SPACETRACK.ORG API","18 SPCS","55089","SPACEBEE-163","PAYLOAD","U","23001CJ","2023-11-08 03:34:09","465024","15.27488682","0.001172","97.4568","11.4492","214.6644","145.3832","0","999","4701","0.0016398","0.00044327","0","4078279","0 SPACEBEE-163","1 55089U 23001CJ  23312.14872066  .00044327  00000-0  16398-2 0  9997","2 55089  97.4568  11.4492 0011720 214.6644 145.3832 15.27488682 47016","2023-001CJ","55089","6861.460","94.272","491.366","475.283","0"
"GENERATED VIA SPACETRACK.ORG API","18 SPCS","55089","SPACEBEE-163","PAYLOAD","U","23001CJ","2023-11-08 03:34:09","465024","15.27488682","0.001172","97.4568","11.4492","214.6644","145.3832","0","999","4701","0.0016398","0.00044327","0","4078352","0 SPACEBEE-163","1 55089U 23001CJ  23312.14872066  .00044327  00000-0  16398-2 0  9997","2 55089  97.4568  11.4492 0011720 214.6644 145.3832 15.27488682 47016","2023-001CJ","55089","6861.460","94.272","491.366","475.283","0"
"GENERATED VIA SPACETRACK.ORG API","18 SPCS","55089","SPACEBEE-163","PAYLOAD","U","23001CJ","2023-11-08 16:08:48","704352","15.27531618","0.0011654","97.4568","11.9729","213.1771","146.8738","0","999","4709","0.0015226","0.0004119","0","4078917","0 SPACEBEE-163","1 55089U 23001CJ  23312.67278593  .00041190  00000-0  15226-2 0  9994","2 55089  97.4568  11.9729 0011654 213.1771 146.8738 15.27531618 47092","2023-001CJ","55089","6861.331","94.270","491.192","475.200","0"
"GENERATED VIA SPACETRACK.ORG API","18 SPCS","55089","SPACEBEE-163","PAYLOAD","U","23001CJ","2023-11-09 03:09:07","19136","15.27568832","0.0011675","97.4566","12.4314","211.7512","148.3024","0","999","4716","0.0015246","0.00041291","0","4080359","0 SPACEBEE-163","1 55089U 23001CJ  23313.13133124  .00041291  00000-0  15246-2 0  9990","2 55089  97.4566  12.4314 0011675 211.7512 148.3024 15.27568832 47167","2023-001CJ","55089","6861.220","94.267","491.095","475.074","0"
"GENERATED VIA SPACETRACK.ORG API","18 SPCS","55089","SPACEBEE-163","PAYLOAD","U","23001CJ","2023-11-09 15:43:43","884192","15.27611253","0.0011716","97.4568","12.9555","209.7115","150.346","0","999","4724","0.0014636","0.00039679","0","4080490","0 SPACEBEE-163","1 55089U 23001CJ  23313.65536903  .00039679  00000-0  14636-2 0  9998","2 55089  97.4568  12.9555 0011716 209.7115 150.3460 15.27611253 47245","2023-001CJ","55089","6861.093","94.265","490.996","474.919","0"
"GENERATED VIA SPACETRACK.ORG API","18 SPCS","55089","SPACEBEE-163","PAYLOAD","U","23001CJ","2023-11-09 15:43:43","884192","15.27611253","0.0011716","97.4568","12.9555","209.7115","150.346","0","999","4724","0.0014636","0.00039679","0","4080838","0 SPACEBEE-163","1 55089U 23001CJ  23313.65536903  .00039679  00000-0  14636-2 0  9998","2 55089  97.4568  12.9555 0011716 209.7115 150.3460 15.27611253 47245","2023-001CJ","55089","6861.093","94.265","490.996","474.919","0"
"GENERATED VIA SPACETRACK.ORG API","18 SPCS","55089","SPACEBEE-163","PAYLOAD","U","23001CJ","2023-11-10 10:35:36","955680","15.27670001","0.0011691","97.4568","13.7415","206.6923","153.3716","0","999","4736","0.0013608","0.00036939","0","4082124","0 SPACEBEE-163","1 55089U 23001CJ  23314.44139995  .00036939  00000-0  13608-2 0  9990","2 55089  97.4568  13.7415 0011691 206.6923 153.3716 15.27670001 47360","2023-001CJ","55089","6860.917","94.261","490.803","474.761","0"
"GENERATED VIA SPACETRACK.ORG API","18 SPCS","55089","SPACEBEE-163","PAYLOAD","U","23001CJ","2023-11-11 03:53:08","379456","15.27719602","0.0011704","97.4567","14.462","204.05","156.0194","0","999","4747","0.0012292","0.00033395","0","4083261","0 SPACEBEE-163","1 55089U 23001CJ  23315.16190254  .00033395  00000-0  12292-2 0  9996","2 55089  97.4567  14.4620 0011704 204.0500 156.0194 15.27719602 47476","2023-001CJ","55089","6860.768","94.258","490.663","474.603","0"
"GENERATED VIA SPACETRACK.ORG API","18 SPCS","55089","SPACEBEE-163","PAYLOAD","U","23001CJ","2023-11-11 10:10:24","737088","15.27737847","0.0011767","97.4568","14.7245","202.8999","157.1717","0","999","4751","0.0012272","0.00033359","0","4083845","0 SPACEBEE-163","1 55089U 23001CJ  23315.42389742  .00033359  00000-0  12272-2 0  9995","2 55089  97.4568  14.7245 0011767 202.8999 157.1717 15.27737847 47519","2023-001CJ","55089","6860.713","94.257","490.651","474.505","0"
"GENERATED VIA SPACETRACK.ORG API","18 SPCS","55089","SPACEBEE-163","PAYLOAD","U","23001CJ","2023-11-11 14:53:21","867072","15.27750091","0.001179","97.4567","14.921","202.2452","157.8277","0","999","4754","0.0011489","0.00031229","0","4084458","0 SPACEBEE-163","1 55089U 23001CJ  23315.62039198  .00031229  00000-0  11489-2 0  9997","2 55089  97.4567  14.9210 0011790 202.2452 157.8277 15.27750091 47543","2023-001CJ","55089","6860.677","94.256","490.631","474.453","0"
"GENERATED VIA SPACETRACK.ORG API","18 SPCS","55089","SPACEBEE-163","PAYLOAD","U","23001CJ","2023-11-12 03:27:53","611200","15.27779439","0.0011825","97.4566","15.4451","200.5088","159.5678","0","999","4762","0.0010884","0.00029601","0","4085556","0 SPACEBEE-163","1 55089U 23001CJ  23316.14437050  .00029601  00000-0  10884-2 0  9993","2 55089  97.4566  15.4451 0011825 200.5088 159.5678 15.27779439 47620","2023-001CJ","55089","6860.589","94.254","490.567","474.341","0"
"GENERATED VIA SPACETRACK.ORG API","18 SPCS","55089","SPACEBEE-163","PAYLOAD","U","23001CJ","2023-11-12 03:27:53","611200","15.27779439","0.0011825","97.4566","15.4451","200.5088","159.5678","0","999","4762","0.0010884","0.00029601","0","4086087","0 SPACEBEE-163","1 55089U 23001CJ  23316.14437050  .00029601  00000-0  10884-2 0  9993","2 55089  97.4566  15.4451 0011825 200.5088 159.5678 15.27779439 47620","2023-001CJ","55089","6860.589","94.254","490.567","474.341","0"
"GENERATED VIA SPACETRACK.ORG API","18 SPCS","55089","SPACEBEE-163","PAYLOAD","U","23001CJ","2023-11-13 03:02:35","618496","15.27841301","0.0011874","97.4562","16.4276","197.1985","162.8853","0","999","4777","0.0012118","0.00033043","0","4087425","0 SPACEBEE-163","1 55089U 23001CJ  23317.12680114  .00033043  00000-0  12118-2 0  9990","2 55089  97.4562  16.4276 0011874 197.1985 162.8853 15.27841301 47779","2023-001CJ","55089","6860.404","94.251","490.415","474.123","0"
"GENERATED VIA SPACETRACK.ORG API","18 SPCS","55089","SPACEBEE-163","PAYLOAD","U","23001CJ","2023-11-14 02:37:13","996992","15.27906523","0.0011904","97.4558","17.41","193.4148","166.6776","0","999","4792","0.0011721","0.00032018","0","4088475","0 SPACEBEE-163","1 55089U 23001CJ  23318.10918978  .00032018  00000-0  11721-2 0  9991","2 55089  97.4558  17.4100 0011904 193.4148 166.6776 15.27906523 47926","2023-001CJ","55089","6860.209","94.247","490.240","473.907","0"
"GENERATED VIA SPACETRACK.ORG API","18 SPCS","55089","SPACEBEE-163","PAYLOAD","U","23001CJ","2023-11-14 02:37:13","996992","15.27906523","0.0011904","97.4558","17.41","193.4148","166.6776","0","999","4792","0.0011721","0.00032018","0","4089264","0 SPACEBEE-163","1 55089U 23001CJ  23318.10918978  .00032018  00000-0  11721-2 0  9991","2 55089  97.4558  17.4100 0011904 193.4148 166.6776 15.27906523 47926","2023-001CJ","55089","6860.209","94.247","490.240","473.907","0"
"GENERATED VIA SPACETRACK.ORG API","18 SPCS","55089","SPACEBEE-163","PAYLOAD","U","23001CJ","2023-11-14 21:28:54","311520","15.27950268","0.0011949","97.4552","18.1959","190.5645","169.5345","0","999","4804","0.0010587","0.0002894","0","4089734","0 SPACEBEE-163","1 55089U 23001CJ  23318.89507305  .00028940  00000-0  10587-2 0  9993","2 55089  97.4552  18.1959 0011949 190.5645 169.5345 15.27950268 48042","2023-001CJ","55089","6860.078","94.244","490.140","473.745","0"
